{"fetched_at":"2026-07-11T06:35:31.333Z","source":"https://celestrak.org/NORAD/elements/gp.php?NAME=ICEYE&FORMAT=JSON","constellation":"iceye","records":[{"OBJECT_NAME":"ICEYE-X53","OBJECT_ID":"2025-135BJ","EPOCH":"2026-07-10T19:47:59.845344","CLASSIFICATION_TYPE":"U","MEAN_MOTION":15.0087658,"ECCENTRICITY":0.0001706,"INCLINATION":97.7365,"RA_OF_ASC_NODE":308.5039,"ARG_OF_PERICENTER":165.2417,"MEAN_ANOMALY":194.8857,"EPHEMERIS_TYPE":0,"NORAD_CAT_ID":64584,"ELEMENT_SET_NO":999,"REV_AT_EPOCH":5762,"BSTAR":0.000014674,"MEAN_MOTION_DOT":0.00000127,"MEAN_MOTION_DDOT":0},{"OBJECT_NAME":"ICEYE-X65","OBJECT_ID":"2025-248H","EPOCH":"2026-07-09T22:32:54.794976","CLASSIFICATION_TYPE":"U","MEAN_MOTION":15.07908239,"ECCENTRICITY":0.0004928,"INCLINATION":45.4054,"RA_OF_ASC_NODE":14.538,"ARG_OF_PERICENTER":169.9214,"MEAN_ANOMALY":190.1767,"EPHEMERIS_TYPE":0,"NORAD_CAT_ID":66300,"ELEMENT_SET_NO":999,"REV_AT_EPOCH":3895,"BSTAR":0.00014071479,"MEAN_MOTION_DOT":0.00001945,"MEAN_MOTION_DDOT":0},{"OBJECT_NAME":"ICEYE-X66","OBJECT_ID":"2025-248J","EPOCH":"2026-07-10T11:18:25.894656","CLASSIFICATION_TYPE":"U","MEAN_MOTION":15.09157777,"ECCENTRICITY":0.00046055,"INCLINATION":45.4022,"RA_OF_ASC_NODE":10.8728,"ARG_OF_PERICENTER":169.2953,"MEAN_ANOMALY":190.8028,"EPHEMERIS_TYPE":0,"NORAD_CAT_ID":66301,"ELEMENT_SET_NO":999,"REV_AT_EPOCH":3902,"BSTAR":0.00013725205,"MEAN_MOTION_DOT":0.00001963,"MEAN_MOTION_DDOT":0},{"OBJECT_NAME":"ICEYE-X67","OBJECT_ID":"2025-248K","EPOCH":"2026-07-10T11:53:54.034656","CLASSIFICATION_TYPE":"U","MEAN_MOTION":15.09139997,"ECCENTRICITY":0.0006224,"INCLINATION":45.4059,"RA_OF_ASC_NODE":10.3192,"ARG_OF_PERICENTER":169.5967,"MEAN_ANOMALY":190.5044,"EPHEMERIS_TYPE":0,"NORAD_CAT_ID":66302,"ELEMENT_SET_NO":999,"REV_AT_EPOCH":3904,"BSTAR":0.00016683,"MEAN_MOTION_DOT":0.00002439,"MEAN_MOTION_DDOT":0},{"OBJECT_NAME":"ICEYE-X58","OBJECT_ID":"2025-276CP","EPOCH":"2026-07-10T03:15:10.014912","CLASSIFICATION_TYPE":"U","MEAN_MOTION":15.17290879,"ECCENTRICITY":0.00019191,"INCLINATION":97.4195,"RA_OF_ASC_NODE":264.118,"ARG_OF_PERICENTER":241.0948,"MEAN_ANOMALY":119.0093,"EPHEMERIS_TYPE":0,"NORAD_CAT_ID":66751,"ELEMENT_SET_NO":999,"REV_AT_EPOCH":3389,"BSTAR":0.000080569775,"MEAN_MOTION_DOT":0.00001539,"MEAN_MOTION_DDOT":0},{"OBJECT_NAME":"ICEYE-X59","OBJECT_ID":"2025-276CQ","EPOCH":"2026-07-10T05:04:59.126016","CLASSIFICATION_TYPE":"U","MEAN_MOTION":15.00724834,"ECCENTRICITY":0.00005702,"INCLINATION":97.4377,"RA_OF_ASC_NODE":261.5258,"ARG_OF_PERICENTER":143.3764,"MEAN_ANOMALY":216.75,"EPHEMERIS_TYPE":0,"NORAD_CAT_ID":66752,"ELEMENT_SET_NO":999,"REV_AT_EPOCH":3372,"BSTAR":0.00025313016,"MEAN_MOTION_DOT":0.00003152,"MEAN_MOTION_DDOT":0},{"OBJECT_NAME":"ICEYE-X60","OBJECT_ID":"2025-276CR","EPOCH":"2026-07-10T08:00:03.000384","CLASSIFICATION_TYPE":"U","MEAN_MOTION":15.11432187,"ECCENTRICITY":0.00012507,"INCLINATION":97.4185,"RA_OF_ASC_NODE":263.3145,"ARG_OF_PERICENTER":331.6983,"MEAN_ANOMALY":212.3455,"EPHEMERIS_TYPE":0,"NORAD_CAT_ID":66753,"ELEMENT_SET_NO":999,"REV_AT_EPOCH":581,"BSTAR":-0.0029888108,"MEAN_MOTION_DOT":-0.00050185,"MEAN_MOTION_DDOT":0},{"OBJECT_NAME":"ICEYE-X61","OBJECT_ID":"2025-276CS","EPOCH":"2026-07-10T14:51:46.802016","CLASSIFICATION_TYPE":"U","MEAN_MOTION":15.18593094,"ECCENTRICITY":0.0001733,"INCLINATION":97.4195,"RA_OF_ASC_NODE":264.6725,"ARG_OF_PERICENTER":237.29,"MEAN_ANOMALY":122.8167,"EPHEMERIS_TYPE":0,"NORAD_CAT_ID":66754,"ELEMENT_SET_NO":999,"REV_AT_EPOCH":3397,"BSTAR":0.0001061,"MEAN_MOTION_DOT":0.00002127,"MEAN_MOTION_DDOT":0},{"OBJECT_NAME":"ICEYE-X62","OBJECT_ID":"2025-276CT","EPOCH":"2026-07-08T17:33:38.443680","CLASSIFICATION_TYPE":"U","MEAN_MOTION":15.10117598,"ECCENTRICITY":0.00007834,"INCLINATION":97.4194,"RA_OF_ASC_NODE":261.2654,"ARG_OF_PERICENTER":320.3388,"MEAN_ANOMALY":39.7785,"EPHEMERIS_TYPE":0,"NORAD_CAT_ID":66755,"ELEMENT_SET_NO":999,"REV_AT_EPOCH":3358,"BSTAR":0.000094518905,"MEAN_MOTION_DOT":0.00001479,"MEAN_MOTION_DDOT":0},{"OBJECT_NAME":"ICEYE-X63","OBJECT_ID":"2026-004K","EPOCH":"2026-07-10T16:19:03.406656","CLASSIFICATION_TYPE":"U","MEAN_MOTION":14.88343806,"ECCENTRICITY":0.0005625,"INCLINATION":97.801,"RA_OF_ASC_NODE":189.9527,"ARG_OF_PERICENTER":62.817,"MEAN_ANOMALY":297.362,"EPHEMERIS_TYPE":0,"NORAD_CAT_ID":67372,"ELEMENT_SET_NO":999,"REV_AT_EPOCH":2679,"BSTAR":0.000069378,"MEAN_MOTION_DOT":0.00000588,"MEAN_MOTION_DDOT":0},{"OBJECT_NAME":"ICEYE-X64","OBJECT_ID":"2026-004L","EPOCH":"2026-07-10T14:13:56.858016","CLASSIFICATION_TYPE":"U","MEAN_MOTION":14.87980468,"ECCENTRICITY":0.0007473,"INCLINATION":97.8024,"RA_OF_ASC_NODE":189.7883,"ARG_OF_PERICENTER":66.2935,"MEAN_ANOMALY":293.9065,"EPHEMERIS_TYPE":0,"NORAD_CAT_ID":67373,"ELEMENT_SET_NO":999,"REV_AT_EPOCH":2677,"BSTAR":0.00009153,"MEAN_MOTION_DOT":0.00000785,"MEAN_MOTION_DDOT":0},{"OBJECT_NAME":"ICEYE-X71","OBJECT_ID":"2026-067CG","EPOCH":"2026-07-10T08:06:18.585504","CLASSIFICATION_TYPE":"U","MEAN_MOTION":14.91779046,"ECCENTRICITY":0.00014357,"INCLINATION":97.7615,"RA_OF_ASC_NODE":149.2186,"ARG_OF_PERICENTER":2.8077,"MEAN_ANOMALY":357.315,"EPHEMERIS_TYPE":0,"NORAD_CAT_ID":68494,"ELEMENT_SET_NO":999,"REV_AT_EPOCH":1517,"BSTAR":0.00013462028,"MEAN_MOTION_DOT":0.00001301,"MEAN_MOTION_DDOT":0},{"OBJECT_NAME":"ICEYE-X73","OBJECT_ID":"2026-067CJ","EPOCH":"2026-07-10T07:12:14.988672","CLASSIFICATION_TYPE":"U","MEAN_MOTION":14.92336562,"ECCENTRICITY":0.00011496,"INCLINATION":97.7614,"RA_OF_ASC_NODE":149.2635,"ARG_OF_PERICENTER":153.7105,"MEAN_ANOMALY":206.4173,"EPHEMERIS_TYPE":0,"NORAD_CAT_ID":68496,"ELEMENT_SET_NO":999,"REV_AT_EPOCH":1517,"BSTAR":0.00021228733,"MEAN_MOTION_DOT":0.00002114,"MEAN_MOTION_DDOT":0},{"OBJECT_NAME":"ICEYE-X75","OBJECT_ID":"2026-067CK","EPOCH":"2026-07-10T07:17:53.718144","CLASSIFICATION_TYPE":"U","MEAN_MOTION":14.92168072,"ECCENTRICITY":0.00010024,"INCLINATION":97.7604,"RA_OF_ASC_NODE":149.2369,"ARG_OF_PERICENTER":151.7825,"MEAN_ANOMALY":208.3448,"EPHEMERIS_TYPE":0,"NORAD_CAT_ID":68497,"ELEMENT_SET_NO":999,"REV_AT_EPOCH":1517,"BSTAR":0.000086022275,"MEAN_MOTION_DOT":0.0000082,"MEAN_MOTION_DDOT":0},{"OBJECT_NAME":"ICEYE-X74","OBJECT_ID":"2026-067CN","EPOCH":"2026-07-10T03:15:17.911008","CLASSIFICATION_TYPE":"U","MEAN_MOTION":14.91778831,"ECCENTRICITY":0.00012764,"INCLINATION":97.7622,"RA_OF_ASC_NODE":149.0293,"ARG_OF_PERICENTER":0.8315,"MEAN_ANOMALY":359.2905,"EPHEMERIS_TYPE":0,"NORAD_CAT_ID":68500,"ELEMENT_SET_NO":999,"REV_AT_EPOCH":1514,"BSTAR":0.00012844254,"MEAN_MOTION_DOT":0.00001239,"MEAN_MOTION_DDOT":0},{"OBJECT_NAME":"ICEYE-X76","OBJECT_ID":"2026-067CQ","EPOCH":"2026-07-09T14:16:28.095168","CLASSIFICATION_TYPE":"U","MEAN_MOTION":14.91743809,"ECCENTRICITY":0.00010351,"INCLINATION":97.7637,"RA_OF_ASC_NODE":148.5145,"ARG_OF_PERICENTER":351.4143,"MEAN_ANOMALY":8.7058,"EPHEMERIS_TYPE":0,"NORAD_CAT_ID":68502,"ELEMENT_SET_NO":999,"REV_AT_EPOCH":1506,"BSTAR":0.000056926762,"MEAN_MOTION_DOT":0.00000518,"MEAN_MOTION_DDOT":0}]}
